{
  "type": "FeatureCollection",
  "features": [
    {
      "type": "Feature",
      "properties": {
        "norad_id": 33901,
        "name": "COSMOS 2251 DEB",
        "group": "cosmos-2251-debris",
        "lat": -52.628592600927085,
        "lon": -132.6626707999108,
        "alt_km": 517.7979185635704,
        "timestamp": "2025-12-24T05:51:20.002374+00:00",
        "meta_object_name": "COSMOS 2251 DEB",
        "meta_object_id": "1993-036DE",
        "meta_epoch": "2025-12-23T19:19:31.814976",
        "meta_mean_motion": 15.17043147,
        "meta_eccentricity": 0.0029829,
        "meta_inclination": 73.7738,
        "meta_ra_of_asc_node": 25.8528,
        "meta_arg_of_pericenter": 156.3625,
        "meta_mean_anomaly": 203.8948,
        "meta_ephemeris_type": 0,
        "meta_classification_type": "U",
        "meta_norad_cat_id": 33901,
        "meta_element_set_no": 999,
        "meta_rev_at_epoch": 89681,
        "meta_bstar": 0.0025146955,
        "meta_mean_motion_dot": 0.00050647,
        "meta_mean_motion_ddot": 0,
        "tle_line1": "1 33901U 93036DE  25357.80522934  .00050647  00000+0  25147-2 0  9994",
        "tle_line2": "2 33901  73.7738  25.8528 0029829 156.3625 203.8948 15.17043147896810"
      },
      "geometry": {
        "type": "Point",
        "coordinates": [
          -132.6626707999108,
          -52.628592600927085
        ]
      }
    },
    {
      "type": "Feature",
      "properties": {
        "norad_id": 33905,
        "name": "COSMOS 2251 DEB",
        "group": "cosmos-2251-debris",
        "lat": -14.947984615467732,
        "lon": 119.77718057440985,
        "alt_km": 737.4082675638174,
        "timestamp": "2025-12-24T05:51:20.002384+00:00",
        "meta_object_name": "COSMOS 2251 DEB",
        "meta_object_id": "1993-036DJ",
        "meta_epoch": "2025-12-23T12:47:16.078272",
        "meta_mean_motion": 14.3542029,
        "meta_eccentricity": 0.00582212,
        "meta_inclination": 73.8868,
        "meta_ra_of_asc_node": 296.6667,
        "meta_arg_of_pericenter": 183.8757,
        "meta_mean_anomaly": 297.9829,
        "meta_ephemeris_type": 0,
        "meta_classification_type": "U",
        "meta_norad_cat_id": 33905,
        "meta_element_set_no": 999,
        "meta_rev_at_epoch": 87842,
        "meta_bstar": 0.00050313062,
        "meta_mean_motion_dot": 1.446e-05,
        "meta_mean_motion_ddot": 0,
        "tle_line1": "1 33905U 93036DJ  25357.53282498  .00001446  00000+0  50313-3 0  9993",
        "tle_line2": "2 33905  73.8868 296.6667 0058221 183.8757 297.9829 14.35420290878426"
      },
      "geometry": {
        "type": "Point",
        "coordinates": [
          119.77718057440985,
          -14.947984615467732
        ]
      }
    },
    {
      "type": "Feature",
      "properties": {
        "norad_id": 33906,
        "name": "COSMOS 2251 DEB",
        "group": "cosmos-2251-debris",
        "lat": -71.55332358898737,
        "lon": 178.75447548384835,
        "alt_km": 698.4750881141299,
        "timestamp": "2025-12-24T05:51:20.002394+00:00",
        "meta_object_name": "COSMOS 2251 DEB",
        "meta_object_id": "1993-036DK",
        "meta_epoch": "2025-12-23T22:21:39.383712",
        "meta_mean_motion": 14.5726796,
        "meta_eccentricity": 0.00369125,
        "meta_inclination": 74.0311,
        "meta_ra_of_asc_node": 300.2042,
        "meta_arg_of_pericenter": 327.9181,
        "meta_mean_anomaly": 95.5281,
        "meta_ephemeris_type": 0,
        "meta_classification_type": "U",
        "meta_norad_cat_id": 33906,
        "meta_element_set_no": 999,
        "meta_rev_at_epoch": 88171,
        "meta_bstar": 0.0018521975,
        "meta_mean_motion_dot": 8.435e-05,
        "meta_mean_motion_ddot": 0,
        "tle_line1": "1 33906U 93036DK  25357.93170583  .00008435  00000+0  18522-2 0  9999",
        "tle_line2": "2 33906  74.0311 300.2042 0036912 327.9181  95.5281 14.57267960881714"
      },
      "geometry": {
        "type": "Point",
        "coordinates": [
          178.75447548384835,
          -71.55332358898737
        ]
      }
    },
    {
      "type": "Feature",
      "properties": {
        "norad_id": 33907,
        "name": "COSMOS 2251 DEB",
        "group": "cosmos-2251-debris",
        "lat": -31.1856020256495,
        "lon": -157.28959467329193,
        "alt_km": 862.9094347188557,
        "timestamp": "2025-12-24T05:51:20.002404+00:00",
        "meta_object_name": "COSMOS 2251 DEB",
        "meta_object_id": "1993-036DL",
        "meta_epoch": "2025-12-23T10:57:11.276064",
        "meta_mean_motion": 14.30599718,
        "meta_eccentricity": 0.01119299,
        "meta_inclination": 74.07,
        "meta_ra_of_asc_node": 14.1856,
        "meta_arg_of_pericenter": 66.4229,
        "meta_mean_anomaly": 50.7129,
        "meta_ephemeris_type": 0,
        "meta_classification_type": "U",
        "meta_norad_cat_id": 33907,
        "meta_element_set_no": 999,
        "meta_rev_at_epoch": 86733,
        "meta_bstar": 0.0019119611,
        "meta_mean_motion_dot": 5.323e-05,
        "meta_mean_motion_ddot": 0,
        "tle_line1": "1 33907U 93036DL  25357.45638051  .00005323  00000+0  19120-2 0  9994",
        "tle_line2": "2 33907  74.0700  14.1856 0111929  66.4229  50.7129 14.30599718867337"
      },
      "geometry": {
        "type": "Point",
        "coordinates": [
          -157.28959467329193,
          -31.1856020256495
        ]
      }
    },
    {
      "type": "Feature",
      "properties": {
        "norad_id": 33908,
        "name": "COSMOS 2251 DEB",
        "group": "cosmos-2251-debris",
        "lat": 3.888090142939667,
        "lon": -173.51918096250182,
        "alt_km": 1018.4625917882886,
        "timestamp": "2025-12-24T05:51:20.002414+00:00",
        "meta_object_name": "COSMOS 2251 DEB",
        "meta_object_id": "1993-036DM",
        "meta_epoch": "2025-12-23T12:46:34.804992",
        "meta_mean_motion": 14.07422421,
        "meta_eccentricity": 0.02223373,
        "meta_inclination": 73.8365,
        "meta_ra_of_asc_node": 186.6139,
        "meta_arg_of_pericenter": 208.1333,
        "meta_mean_anomaly": 150.7648,
        "meta_ephemeris_type": 0,
        "meta_classification_type": "U",
        "meta_norad_cat_id": 33908,
        "meta_element_set_no": 999,
        "meta_rev_at_epoch": 85625,
        "meta_bstar": 0.0022813568,
        "meta_mean_motion_dot": 4.786e-05,
        "meta_mean_motion_ddot": 0,
        "tle_line1": "1 33908U 93036DM  25357.53234728  .00004786  00000+0  22814-2 0  9993",
        "tle_line2": "2 33908  73.8365 186.6139 0222337 208.1333 150.7648 14.07422421856254"
      },
      "geometry": {
        "type": "Point",
        "coordinates": [
          -173.51918096250182,
          3.888090142939667
        ]
      }
    },
    {
      "type": "Feature",
      "properties": {
        "norad_id": 33911,
        "name": "COSMOS 2251 DEB",
        "group": "cosmos-2251-debris",
        "lat": 46.526474145652415,
        "lon": 156.95710898277238,
        "alt_km": 631.2812634245638,
        "timestamp": "2025-12-24T05:51:20.002425+00:00",
        "meta_object_name": "COSMOS 2251 DEB",
        "meta_object_id": "1993-036DQ",
        "meta_epoch": "2025-12-22T20:07:55.852896",
        "meta_mean_motion": 14.75092709,
        "meta_eccentricity": 0.00139875,
        "meta_inclination": 74.0904,
        "meta_ra_of_asc_node": 142.1847,
        "meta_arg_of_pericenter": 75.4181,
        "meta_mean_anomaly": 74.9634,
        "meta_ephemeris_type": 0,
        "meta_classification_type": "U",
        "meta_norad_cat_id": 33911,
        "meta_element_set_no": 999,
        "meta_rev_at_epoch": 88793,
        "meta_bstar": 0.0021527339,
        "meta_mean_motion_dot": 0.00014537,
        "meta_mean_motion_ddot": 0,
        "tle_line1": "1 33911U 93036DQ  25356.83884089  .00014537  00000+0  21527-2 0  9995",
        "tle_line2": "2 33911  74.0904 142.1847 0013987  75.4181  74.9634 14.75092709887936"
      },
      "geometry": {
        "type": "Point",
        "coordinates": [
          156.95710898277238,
          46.526474145652415
        ]
      }
    },
    {
      "type": "Feature",
      "properties": {
        "norad_id": 33912,
        "name": "COSMOS 2251 DEB",
        "group": "cosmos-2251-debris",
        "lat": 57.75995415781791,
        "lon": -164.9491343709117,
        "alt_km": 721.3422009717215,
        "timestamp": "2025-12-24T05:51:20.002434+00:00",
        "meta_object_name": "COSMOS 2251 DEB",
        "meta_object_id": "1993-036DR",
        "meta_epoch": "2025-12-23T18:05:11.992992",
        "meta_mean_motion": 14.51954389,
        "meta_eccentricity": 0.00113107,
        "meta_inclination": 74.0328,
        "meta_ra_of_asc_node": 168.9767,
        "meta_arg_of_pericenter": 248.0972,
        "meta_mean_anomaly": 131.419,
        "meta_ephemeris_type": 0,
        "meta_classification_type": "U",
        "meta_norad_cat_id": 33912,
        "meta_element_set_no": 999,
        "meta_rev_at_epoch": 88593,
        "meta_bstar": 0.00077575436,
        "meta_mean_motion_dot": 3.107e-05,
        "meta_mean_motion_ddot": 0,
        "tle_line1": "1 33912U 93036DR  25357.75361103  .00003107  00000+0  77575-3 0  9991",
        "tle_line2": "2 33912  74.0328 168.9767 0011310 248.0972 131.4190 14.51954389885937"
      },
      "geometry": {
        "type": "Point",
        "coordinates": [
          -164.9491343709117,
          57.75995415781791
        ]
      }
    }
  ]
}